NORAD_CAT_ID,OBJECT_NAME,OBJECT_TYPE,EPOCH,MEAN_MOTION,ECCENTRICITY,INCLINATION,RA_OF_ASC_NODE,ARG_OF_PERICENTER,MEAN_ANOMALY,BSTAR,MEAN_MOTION_DOT,MEAN_MOTION_DDOT,TLE_LINE0,TLE_LINE1,TLE_LINE2,SEMIMAJOR_AXIS,PERIOD,APOGEE,PERIGEE,DECAYED
53827.0,STARLINK-4764,PAYLOAD,2023-12-23 07:26:51,15.08844174,0.0001545,53.2185,328.6423,92.4252,267.6917,0.00015414,2.166e-05,0.0,0 STARLINK-4764,1 53827U 22114K   23357.31032147  .00002166  00000-0  15414-3 0  9999,2 53827  53.2185 328.6423 0001545  92.4252 267.6917 15.08844174 70409,6917.868,95.437,540.801,538.664,0.0
53827.0,STARLINK-4764,PAYLOAD,2023-12-24 04:06:53,15.08840637,0.000185,53.2188,324.7785,105.5643,254.5553,0.00016901,2.403e-05,0.0,0 STARLINK-4764,1 53827U 22114K   23358.17144781  .00002403  00000-0  16901-3 0  9998,2 53827  53.2188 324.7785 0001850 105.5643 254.5553 15.08840637 70534,6917.878,95.438,541.023,538.464,0.0
53827.0,STARLINK-4764,PAYLOAD,2023-12-24 05:42:16,15.08842866,0.0001959,53.2191,324.4852,70.5311,289.5892,0.00023443,3.445e-05,0.0,0 STARLINK-4764,1 53827U 22114K   23358.23768968  .00003445  00000-0  23443-3 0  9990,2 53827  53.2191 324.4852 0001959  70.5311 289.5892 15.08842866 71084,6917.872,95.437,541.092,538.381,0.0
53827.0,STARLINK-4764,PAYLOAD,2023-12-24 21:36:07,15.08845387,0.0001738,53.2177,321.5213,73.3017,286.8166,0.00022568,3.306e-05,0.0,0 STARLINK-4764,1 53827U 22114K   23358.90008993  .00003306  00000-0  22568-3 0  9992,2 53827  53.2177 321.5213 0001738  73.3017 286.8166 15.08845387 71182,6917.864,95.437,540.931,538.527,0.0
53827.0,STARLINK-4764,PAYLOAD,2023-12-25 07:08:25,15.08851031,0.0001457,53.2177,319.7294,116.9932,243.1209,0.0001942,2.805e-05,0.0,0 STARLINK-4764,1 53827U 22114K   23359.29752189  .00002805  00000-0  19420-3 0  9994,2 53827  53.2177 319.7294 0001457 116.9932 243.1209 15.08851031 70702,6917.847,95.437,540.72,538.704,0.0
53827.0,STARLINK-4764,PAYLOAD,2023-12-26 03:48:28,15.08828981,0.000155,53.2181,315.8658,138.8254,221.2856,-0.00014423,-2.582e-05,0.0,0 STARLINK-4764,1 53827U 22114K   23360.15865751 -.00002582  00000-0 -14423-3 0  9993,2 53827  53.2181 315.8658 0001550 138.8254 221.2856 15.08828981 70839,6917.914,95.438,540.851,538.707,0.0
53827.0,STARLINK-4764,PAYLOAD,2023-12-26 06:59:14,15.0882726,0.0001344,53.2176,315.2715,132.492,227.6186,-0.00014174,-2.542e-05,0.0,0 STARLINK-4764,1 53827U 22114K   23360.29114019 -.00002542  00000-0 -14174-3 0  9991,2 53827  53.2176 315.2715 0001344 132.4920 227.6186 15.08827260 71399,6917.919,95.438,540.714,538.855,0.0
53827.0,STARLINK-4764,PAYLOAD,2023-12-27 03:39:14,15.08855708,0.0001596,53.2184,311.4089,108.2024,251.9141,0.00040865,6.224e-05,0.0,0 STARLINK-4764,1 53827U 22114K   23361.15225111  .00006224  00000-0  40865-3 0  9998,2 53827  53.2184 311.4089 0001596 108.2024 251.9141 15.08855708 70988,6917.832,95.437,540.801,538.593,0.0
53827.0,STARLINK-4764,PAYLOAD,2023-12-27 21:08:29,15.08839706,0.0001761,53.2189,308.1337,108.551,251.5674,0.00039511,6.006e-05,0.0,0 STARLINK-4764,1 53827U 22114K   23361.88089548  .00006006  00000-0  39511-3 0  9994,2 53827  53.2189 308.1337 0001761 108.5510 251.5674 15.08839706 71639,6917.881,95.438,540.965,538.528,0.0
53827.0,STARLINK-4764,PAYLOAD,2023-12-28 03:30:01,15.08844744,0.0001235,53.2182,306.9402,95.1797,264.9336,0.00038996,5.925e-05,0.0,0 STARLINK-4764,1 53827U 22114K   23362.14585460  .00005925  00000-0  38996-3 0  9993,2 53827  53.2182 306.9402 0001235  95.1797 264.9336 15.08844744 71131,6917.866,95.437,540.585,538.877,0.0
53827.0,STARLINK-4764,PAYLOAD,2023-12-28 06:40:47,15.08846489,0.0001258,53.2181,306.3468,104.6608,255.4524,0.00035354,5.344e-05,0.0,0 STARLINK-4764,1 53827U 22114K   23362.27833323  .00005344  00000-0  35354-3 0  9991,2 53827  53.2181 306.3468 0001258 104.6608 255.4524 15.08846489 71691,6917.861,95.437,540.596,538.855,0.0
53827.0,STARLINK-4764,PAYLOAD,2023-12-29 06:31:34,15.08857215,0.0001343,53.2186,301.8877,105.9212,254.1928,2.0336e-05,3.6e-07,0.0,0 STARLINK-4764,1 53827U 22114K   23363.27192532  .00000036  00000-0  20336-4 0  9990,2 53827  53.2186 301.8877 0001343 105.9212 254.1928 15.08857215 71301,6917.828,95.436,540.622,538.764,0.0
53827.0,STARLINK-4764,PAYLOAD,2023-12-30 03:11:35,15.08845241,0.0001313,53.2186,298.022,67.2788,292.8343,-3.8884e-05,-9.07e-06,0.0,0 STARLINK-4764,1 53827U 22114K   23364.13305449 -.00000907  00000-0 -38884-4 0  9995,2 53827  53.2186 298.0220 0001313  67.2788 292.8343 15.08845241 71435,6917.864,95.437,540.638,538.821,0.0
53827.0,STARLINK-4764,PAYLOAD,2023-12-30 06:22:21,15.08850678,0.0001184,53.2184,297.4265,89.2055,270.9072,-2.8953e-05,-7.49e-06,0.0,0 STARLINK-4764,1 53827U 22114K   23364.26552948 -.00000749  00000-0 -28953-4 0  9997,2 53827  53.2184 297.4265 0001184  89.2055 270.9072 15.08850678 71999,6917.848,95.437,540.532,538.894,0.0
53827.0,STARLINK-4764,PAYLOAD,2023-12-31 03:02:23,15.08842808,0.00014,53.2182,293.5607,93.7391,266.3762,4.5477e-05,4.36e-06,0.0,0 STARLINK-4764,1 53827U 22114K   23365.12665533  .00000436  00000-0  45477-4 0  9999,2 53827  53.2182 293.5607 0001400  93.7391 266.3762 15.08842808 71584,6917.872,95.437,540.705,538.768,0.0
53827.0,STARLINK-4764,PAYLOAD,2023-12-31 04:37:46,15.08845105,0.0001417,53.2183,293.2631,94.4825,265.6329,6.9757e-05,8.23e-06,0.0,0 STARLINK-4764,1 53827U 22114K   23365.19289365  .00000823  00000-0  69757-4 0  9998,2 53827  53.2183 293.2631 0001417  94.4825 265.6329 15.08845105 72133,6917.865,95.437,540.71,538.75,0.0
53827.0,STARLINK-4764,PAYLOAD,2024-01-01 04:28:32,15.08849953,0.0001467,53.2189,288.8019,82.4227,277.6932,0.00014712,2.055e-05,0.0,0 STARLINK-4764,1 53827U 22114K   24001.18648966  .00002055  00000-0  14712-3 0  9990,2 53827  53.2189 288.8019 0001467  82.4227 277.6932 15.08849953 71741,6917.85,95.437,540.73,538.7,0.0
53827.0,STARLINK-4764,PAYLOAD,2024-01-02 01:08:33,15.08845113,0.0001613,53.2187,284.9365,91.3313,268.7864,7.4334e-05,8.95e-06,0.0,0 STARLINK-4764,1 53827U 22114K   24002.04761301  .00000895  00000-0  74334-4 0  9992,2 53827  53.2187 284.9365 0001613  91.3313 268.7864 15.08845113 71871,6917.865,95.437,540.846,538.614,0.0
53827.0,STARLINK-4764,PAYLOAD,2024-01-02 04:19:19,15.08847667,0.000155,53.2185,284.3395,85.6175,274.4994,9.886e-05,1.286e-05,0.0,0 STARLINK-4764,1 53827U 22114K   24002.18009071  .00001286  00000-0  98860-4 0  9991,2 53827  53.2185 284.3395 0001550  85.6175 274.4994 15.08847667 72435,6917.857,95.437,540.794,538.65,0.0
53827.0,STARLINK-4764,PAYLOAD,2024-01-02 21:48:33,15.08851729,0.0001883,53.2192,281.0685,126.5592,233.5574,1.5368e-05,-4.4e-07,0.0,0 STARLINK-4764,1 53827U 22114K   24002.90872588 -.00000044  00000-0  15368-4 0  9996,2 53827  53.2192 281.0685 0001883 126.5592 233.5574 15.08851729 72542,6917.845,95.437,541.012,538.407,0.0
53827.0,STARLINK-4764,PAYLOAD,2024-01-03 04:10:06,15.08847049,0.0001462,53.2179,279.8797,97.4047,262.7111,6.0388e-05,6.73e-06,0.0,0 STARLINK-4764,1 53827U 22114K   24003.17368778  .00000673  00000-0  60388-4 0  9996,2 53827  53.2179 279.8797 0001462  97.4047 262.7111 15.08847049 72046,6917.859,95.437,540.735,538.712,0.0
53827.0,STARLINK-4764,PAYLOAD,2024-01-03 21:39:21,15.08835869,0.0001704,53.2183,276.6077,103.5129,256.6053,-1.1084e-05,-4.64e-06,0.0,0 STARLINK-4764,1 53827U 22114K   24003.90233681 -.00000464  00000-0 -11084-4 0  9990,2 53827  53.2183 276.6077 0001704 103.5129 256.6053 15.08835869 72691,6917.893,95.438,540.937,538.579,0.0
53827.0,STARLINK-4764,PAYLOAD,2024-01-04 04:00:54,15.08833692,0.0001674,53.218,275.4191,102.0253,258.0927,-4.1526e-05,-9.49e-06,0.0,0 STARLINK-4764,1 53827U 22114K   24004.16729919 -.00000949  00000-0 -41526-4 0  9995,2 53827  53.2180 275.4191 0001674 102.0253 258.0927 15.08833692 72193,6917.9,95.438,540.923,538.607,0.0
53827.0,STARLINK-4764,PAYLOAD,2024-01-04 21:30:08,15.08845346,0.0001676,53.2177,272.1497,114.3537,245.763,1.7146e-05,-1.5e-07,0.0,0 STARLINK-4764,1 53827U 22114K   24004.89592947 -.00000015  00000-0  17146-4 0  9998,2 53827  53.2177 272.1497 0001676 114.3537 245.7630 15.08845346 72840,6917.864,95.437,540.888,538.57,0.0
53827.0,STARLINK-4764,PAYLOAD,2024-01-04 23:05:31,15.08843937,0.0001691,53.2179,271.8519,104.4363,255.6816,7.2918e-05,8.73e-06,0.0,0 STARLINK-4764,1 53827U 22114K   24004.96216867  .00000873  00000-0  72918-4 0  9999,2 53827  53.2179 271.8519 0001691 104.4363 255.6816 15.08843937 72319,6917.868,95.437,540.903,538.564,0.0
53827.0,STARLINK-4764,PAYLOAD,2024-01-05 16:34:46,15.08832929,0.000152,53.2172,268.5848,92.0287,268.0879,9.452e-05,1.216e-05,0.0,0 STARLINK-4764,1 53827U 22114K   24005.69081755  .00001216  00000-0  94520-4 0  9991,2 53827  53.2172 268.5848 0001520  92.0287 268.0879 15.08832929 72426,6917.902,95.438,540.819,538.715,0.0
53827.0,STARLINK-4764,PAYLOAD,2024-01-05 21:20:56,15.08833949,0.0001536,53.2172,267.6914,104.7868,255.3294,5.6753e-05,6.15e-06,0.0,0 STARLINK-4764,1 53827U 22114K   24005.88953860  .00000615  00000-0  56753-4 0  9995,2 53827  53.2172 267.6914 0001536 104.7868 255.3294 15.08833949 72998,6917.899,95.438,540.826,538.701,0.0
53827.0,STARLINK-4764,PAYLOAD,2024-01-05 22:56:19,15.08834079,0.0001357,53.217,267.3943,98.3879,261.7267,4.1515e-05,3.73e-06,0.0,0 STARLINK-4764,1 53827U 22114K   24005.95577937  .00000373  00000-0  41515-4 0  9991,2 53827  53.2170 267.3943 0001357  98.3879 261.7267 15.08834079 73005,6917.898,95.438,540.702,538.825,0.0
53827.0,STARLINK-4764,PAYLOAD,2024-01-06 21:11:43,15.08842952,0.000145,53.2175,263.2311,104.9517,255.1635,-6.8404e-05,-1.377e-05,0.0,0 STARLINK-4764,1 53827U 22114K   24006.88314030 -.00001377  00000-0 -68404-4 0  9990,2 53827  53.2175 263.2311 0001450 104.9517 255.1635 15.08842952 73141,6917.871,95.437,540.739,538.733,0.0
53827.0,STARLINK-4764,PAYLOAD,2024-01-07 03:33:15,15.08852701,0.0001347,53.2166,262.0417,90.2912,269.8234,-0.00013522,-2.44e-05,0.0,0 STARLINK-4764,1 53827U 22114K   24007.14809580 -.00002440  00000-0 -13522-3 0  9991,2 53827  53.2166 262.0417 0001347  90.2912 269.8234 15.08852701 72640,6917.842,95.437,540.638,538.775,0.0
